ONEWEB-0217             
1 48245U 21031AM  26008.29199859 -.00000487  00000+0 -13469-2 0  9993
2 48245  87.9024 321.5517 0001371  81.0801 279.0484 13.14499532227173
ONEWEB-0211             
1 48767U 21045A   26008.31803343  .00000154  00000+0  37187-3 0  9993
2 48767  87.9018 291.0210 0001265  65.3366 294.7896 13.16138687223416
ONEWEB-0223             
1 48768U 21045B   26008.24471380 -.00000632  00000+0 -17139-2 0  9995
2 48768  87.9014 291.1037 0001295  56.9039 303.2215 13.15549025223374
ONEWEB-0230             
1 48769U 21045C   26008.29224276  .00000103  00000+0  24067-3 0  9991
2 48769  87.9005 291.1234 0001805  75.5502 284.5828 13.15548410223641
ONEWEB-0237             
1 48770U 21045D   26008.28115110 -.00000028  00000+0 -10792-3 0  9996
2 48770  87.9010 291.1262 0001674  64.6403 295.4901 13.15548746223367
ONEWEB-0235             
1 48771U 21045E   26008.25579952  .00000005  00000+0 -20565-4 0  9996
2 48771  87.9019 291.1033 0001545  57.3275 302.8005 13.15548218223357
ONEWEB-0242             
1 48772U 21045F   26008.24946305  .00000092  00000+0  21165-3 0  9997
2 48772  87.9019 291.0991 0001752  68.6269 291.5049 13.15548555223398
ONEWEB-0241             
1 48773U 21045G   26008.31285044  .00000260  00000+0  65707-3 0  9999
2 48773  87.9009 291.1216 0001300  65.2898 294.8368 13.15548682223312
ONEWEB-0243             
1 48774U 21045H   26008.26848087  .00000009  00000+0 -92580-5 0  9999
2 48774  87.9012 291.1407 0001763  60.7583 299.3723 13.15551928223337
ONEWEB-0222             
1 48775U 21045J   26008.25182631  .00000082  00000+0  18336-3 0  9990
2 48775  87.9020 291.0987 0001531  68.0099 292.1194 13.15550178223378
ONEWEB-0244             
1 48776U 21045K   26008.27798026  .00000035  00000+0  58627-4 0  9990
2 48776  87.9022 291.0824 0001670  68.7127 291.4181 13.15548306223945
ONEWEB-0247             
1 48777U 21045L   26008.27479467 -.00000443  00000+0 -12096-2 0  9999
2 48777  87.9006 291.1352 0001902  46.4084 313.7204 13.15548708223386
ONEWEB-0245             
1 48778U 21045M   26008.27006412 -.00000022  00000+0 -93067-4 0  9998
2 48778  87.9013 291.1018 0001456  73.4095 286.7195 13.15548639223358
ONEWEB-0229             
1 48779U 21045N   26008.26530888 -.00000033  00000+0 -12184-3 0  9999
2 48779  87.9015 291.1006 0001756  70.0401 290.0918 13.15548546223386
ONEWEB-0228             
1 48780U 21045P   26008.29871596  .00000139  00000+0  33558-3 0  9991
2 48780  87.9016 291.0804 0001608  70.6711 289.4593 13.15549851223303
ONEWEB-0232             
1 48781U 21045Q   26008.27322437 -.00000008  00000+0 -54088-4 0  9994
2 48781  87.9029 291.0799 0001669  73.0074 287.1239 13.15549888223624
