[{"OBJECT_NAME":"ONEWEB-0217","OBJECT_ID":"2021-031AM","EPOCH":"2026-01-08T07:00:28.678176","MEAN_MOTION":13.14499532,"ECCENTRICITY":0.00013716,"INCLINATION":87.9024,"RA_OF_ASC_NODE":321.5517,"ARG_OF_PERICENTER":81.0801,"MEAN_ANOMALY":279.0484,"EPHEMERIS_TYPE":0,"CLASSIFICATION_TYPE":"U","NORAD_CAT_ID":48245,"ELEMENT_SET_NO":999,"REV_AT_EPOCH":22717,"BSTAR":-0.0013468806,"MEAN_MOTION_DOT":-4.87e-6,"MEAN_MOTION_DDOT":0},{"OBJECT_NAME":"ONEWEB-0211","OBJECT_ID":"2021-045A","EPOCH":"2026-01-08T07:37:58.088352","MEAN_MOTION":13.16138687,"ECCENTRICITY":0.00012656,"INCLINATION":87.9018,"RA_OF_ASC_NODE":291.021,"ARG_OF_PERICENTER":65.3366,"MEAN_ANOMALY":294.7896,"EPHEMERIS_TYPE":0,"CLASSIFICATION_TYPE":"U","NORAD_CAT_ID":48767,"ELEMENT_SET_NO":999,"REV_AT_EPOCH":22341,"BSTAR":0.00037186587,"MEAN_MOTION_DOT":1.54e-6,"MEAN_MOTION_DDOT":0},{"OBJECT_NAME":"ONEWEB-0223","OBJECT_ID":"2021-045B","EPOCH":"2026-01-08T05:52:23.272320","MEAN_MOTION":13.15549025,"ECCENTRICITY":0.00012953,"INCLINATION":87.9014,"RA_OF_ASC_NODE":291.1037,"ARG_OF_PERICENTER":56.9039,"MEAN_ANOMALY":303.2215,"EPHEMERIS_TYPE":0,"CLASSIFICATION_TYPE":"U","NORAD_CAT_ID":48768,"ELEMENT_SET_NO":999,"REV_AT_EPOCH":22337,"BSTAR":-0.0017138588,"MEAN_MOTION_DOT":-6.32e-6,"MEAN_MOTION_DDOT":0},{"OBJECT_NAME":"ONEWEB-0230","OBJECT_ID":"2021-045C","EPOCH":"2026-01-08T07:00:49.774464","MEAN_MOTION":13.1554841,"ECCENTRICITY":0.00018053,"INCLINATION":87.9005,"RA_OF_ASC_NODE":291.1234,"ARG_OF_PERICENTER":75.5502,"MEAN_ANOMALY":284.5828,"EPHEMERIS_TYPE":0,"CLASSIFICATION_TYPE":"U","NORAD_CAT_ID":48769,"ELEMENT_SET_NO":999,"REV_AT_EPOCH":22364,"BSTAR":0.00024067388,"MEAN_MOTION_DOT":1.03e-6,"MEAN_MOTION_DDOT":0},{"OBJECT_NAME":"ONEWEB-0237","OBJECT_ID":"2021-045D","EPOCH":"2026-01-08T06:44:51.455040","MEAN_MOTION":13.15548746,"ECCENTRICITY":0.00016747,"INCLINATION":87.901,"RA_OF_ASC_NODE":291.1262,"ARG_OF_PERICENTER":64.6403,"MEAN_ANOMALY":295.4901,"EPHEMERIS_TYPE":0,"CLASSIFICATION_TYPE":"U","NORAD_CAT_ID":48770,"ELEMENT_SET_NO":999,"REV_AT_EPOCH":22336,"BSTAR":-0.0001079229,"MEAN_MOTION_DOT":-2.8e-7,"MEAN_MOTION_DDOT":0},{"OBJECT_NAME":"ONEWEB-0235","OBJECT_ID":"2021-045E","EPOCH":"2026-01-08T06:08:21.078528","MEAN_MOTION":13.15548218,"ECCENTRICITY":0.00015454,"INCLINATION":87.9019,"RA_OF_ASC_NODE":291.1033,"ARG_OF_PERICENTER":57.3275,"MEAN_ANOMALY":302.8005,"EPHEMERIS_TYPE":0,"CLASSIFICATION_TYPE":"U","NORAD_CAT_ID":48771,"ELEMENT_SET_NO":999,"REV_AT_EPOCH":22335,"BSTAR":-2.0565485e-5,"MEAN_MOTION_DOT":5.0e-8,"MEAN_MOTION_DDOT":0},{"OBJECT_NAME":"ONEWEB-0242","OBJECT_ID":"2021-045F","EPOCH":"2026-01-08T05:59:13.607520","MEAN_MOTION":13.15548555,"ECCENTRICITY":0.00017527,"INCLINATION":87.9019,"RA_OF_ASC_NODE":291.0991,"ARG_OF_PERICENTER":68.6269,"MEAN_ANOMALY":291.5049,"EPHEMERIS_TYPE":0,"CLASSIFICATION_TYPE":"U","NORAD_CAT_ID":48772,"ELEMENT_SET_NO":999,"REV_AT_EPOCH":22339,"BSTAR":0.00021164668,"MEAN_MOTION_DOT":9.2e-7,"MEAN_MOTION_DDOT":0},{"OBJECT_NAME":"ONEWEB-0241","OBJECT_ID":"2021-045G","EPOCH":"2026-01-08T07:30:30.278016","MEAN_MOTION":13.15548682,"ECCENTRICITY":0.00013001,"INCLINATION":87.9009,"RA_OF_ASC_NODE":291.1216,"ARG_OF_PERICENTER":65.2898,"MEAN_ANOMALY":294.8368,"EPHEMERIS_TYPE":0,"CLASSIFICATION_TYPE":"U","NORAD_CAT_ID":48773,"ELEMENT_SET_NO":999,"REV_AT_EPOCH":22331,"BSTAR":0.00065706984,"MEAN_MOTION_DOT":2.6e-6,"MEAN_MOTION_DDOT":0},{"OBJECT_NAME":"ONEWEB-0243","OBJECT_ID":"2021-045H","EPOCH":"2026-01-08T06:26:36.747168","MEAN_MOTION":13.15551928,"ECCENTRICITY":0.00017633,"INCLINATION":87.9012,"RA_OF_ASC_NODE":291.1407,"ARG_OF_PERICENTER":60.7583,"MEAN_ANOMALY":299.3723,"EPHEMERIS_TYPE":0,"CLASSIFICATION_TYPE":"U","NORAD_CAT_ID":48774,"ELEMENT_SET_NO":999,"REV_AT_EPOCH":22333,"BSTAR":-9.257953e-6,"MEAN_MOTION_DOT":9.0e-8,"MEAN_MOTION_DDOT":0},{"OBJECT_NAME":"ONEWEB-0222","OBJECT_ID":"2021-045J","EPOCH":"2026-01-08T06:02:37.793184","MEAN_MOTION":13.15550178,"ECCENTRICITY":0.00015312,"INCLINATION":87.902,"RA_OF_ASC_NODE":291.0987,"ARG_OF_PERICENTER":68.0099,"MEAN_ANOMALY":292.1194,"EPHEMERIS_TYPE":0,"CLASSIFICATION_TYPE":"U","NORAD_CAT_ID":48775,"ELEMENT_SET_NO":999,"REV_AT_EPOCH":22337,"BSTAR":0.0001833569,"MEAN_MOTION_DOT":8.2e-7,"MEAN_MOTION_DDOT":0},{"OBJECT_NAME":"ONEWEB-0244","OBJECT_ID":"2021-045K","EPOCH":"2026-01-08T06:40:17.494464","MEAN_MOTION":13.15548306,"ECCENTRICITY":0.00016704,"INCLINATION":87.9022,"RA_OF_ASC_NODE":291.0824,"ARG_OF_PERICENTER":68.7127,"MEAN_ANOMALY":291.4181,"EPHEMERIS_TYPE":0,"CLASSIFICATION_TYPE":"U","NORAD_CAT_ID":48776,"ELEMENT_SET_NO":999,"REV_AT_EPOCH":22394,"BSTAR":5.8626542e-5,"MEAN_MOTION_DOT":3.5e-7,"MEAN_MOTION_DDOT":0},{"OBJECT_NAME":"ONEWEB-0247","OBJECT_ID":"2021-045L","EPOCH":"2026-01-08T06:35:42.259488","MEAN_MOTION":13.15548708,"ECCENTRICITY":0.00019021,"INCLINATION":87.9006,"RA_OF_ASC_NODE":291.1352,"ARG_OF_PERICENTER":46.4084,"MEAN_ANOMALY":313.7204,"EPHEMERIS_TYPE":0,"CLASSIFICATION_TYPE":"U","NORAD_CAT_ID":48777,"ELEMENT_SET_NO":999,"REV_AT_EPOCH":22338,"BSTAR":-0.0012096349,"MEAN_MOTION_DOT":-4.43e-6,"MEAN_MOTION_DDOT":0},{"OBJECT_NAME":"ONEWEB-0245","OBJECT_ID":"2021-045M","EPOCH":"2026-01-08T06:28:53.539968","MEAN_MOTION":13.15548639,"ECCENTRICITY":0.00014569,"INCLINATION":87.9013,"RA_OF_ASC_NODE":291.1018,"ARG_OF_PERICENTER":73.4095,"MEAN_ANOMALY":286.7195,"EPHEMERIS_TYPE":0,"CLASSIFICATION_TYPE":"U","NORAD_CAT_ID":48778,"ELEMENT_SET_NO":999,"REV_AT_EPOCH":22335,"BSTAR":-9.3066538e-5,"MEAN_MOTION_DOT":-2.2e-7,"MEAN_MOTION_DDOT":0},{"OBJECT_NAME":"ONEWEB-0229","OBJECT_ID":"2021-045N","EPOCH":"2026-01-08T06:22:02.687232","MEAN_MOTION":13.15548546,"ECCENTRICITY":0.00017567,"INCLINATION":87.9015,"RA_OF_ASC_NODE":291.1006,"ARG_OF_PERICENTER":70.0401,"MEAN_ANOMALY":290.0918,"EPHEMERIS_TYPE":0,"CLASSIFICATION_TYPE":"U","NORAD_CAT_ID":48779,"ELEMENT_SET_NO":999,"REV_AT_EPOCH":22338,"BSTAR":-0.00012184173,"MEAN_MOTION_DOT":-3.3e-7,"MEAN_MOTION_DDOT":0},{"OBJECT_NAME":"ONEWEB-0228","OBJECT_ID":"2021-045P","EPOCH":"2026-01-08T07:10:09.058944","MEAN_MOTION":13.15549851,"ECCENTRICITY":0.00016085,"INCLINATION":87.9016,"RA_OF_ASC_NODE":291.0804,"ARG_OF_PERICENTER":70.6711,"MEAN_ANOMALY":289.4593,"EPHEMERIS_TYPE":0,"CLASSIFICATION_TYPE":"U","NORAD_CAT_ID":48780,"ELEMENT_SET_NO":999,"REV_AT_EPOCH":22330,"BSTAR":0.00033558122,"MEAN_MOTION_DOT":1.39e-6,"MEAN_MOTION_DDOT":0},{"OBJECT_NAME":"ONEWEB-0232","OBJECT_ID":"2021-045Q","EPOCH":"2026-01-08T06:33:26.585568","MEAN_MOTION":13.15549888,"ECCENTRICITY":0.00016696,"INCLINATION":87.9029,"RA_OF_ASC_NODE":291.0799,"ARG_OF_PERICENTER":73.0074,"MEAN_ANOMALY":287.1239,"EPHEMERIS_TYPE":0,"CLASSIFICATION_TYPE":"U","NORAD_CAT_ID":48781,"ELEMENT_SET_NO":999,"REV_AT_EPOCH":22362,"BSTAR":-5.4088288e-5,"MEAN_MOTION_DOT":-8.0e-8,"MEAN_MOTION_DDOT":0}]
